0 DELTA 1 DEB
1 10221U 77065AY  13282.33321318  .00006923  00000-0  10443-2 0   503
2 10221 029.0698 344.0026 0494966 333.3484 092.1834 14.14194163807980
0 DELTA 1 DEB
1 10221U 77065AY  13284.46174733  .00006110  00000-0  91980-3 0   511
2 10221 029.0689 331.9234 0494927 352.8378 128.8234 14.14212705808289
0 DELTA 1 DEB
1 10221U 77065AY  13286.28763897  .00004468  00000-0  66745-3 0   524
2 10221 029.0682 321.5615 0494975 009.5479 064.7926 14.14227511808547
0 DELTA 1 DEB
1 10221U 77065AY  13287.35206773  .00005014  00000-0  75136-3 0   531
2 10221 029.0680 315.5207 0494993 019.2858 084.0538 14.14235387808694
0 DELTA 1 DEB
1 10221U 77065AY  13289.10436101  .00006305  00000-0  94979-3 0   547
2 10221 029.0672 305.5745 0494948 035.3205 005.4785 14.14253656808944
0 DELTA 1 DEB
1 10221U 77065AY  13290.16747854  .00005587  00000-0  83961-3 0   556
2 10221 029.0668 299.5394 0494936 045.0501 018.1646 14.14262260809090
0 DELTA 1 DEB
1 10221U 77065AY  13291.30604448  .00004820  00000-0  72137-3 0   567
2 10221 029.0663 293.0765 0495004 055.4635 055.0277 14.14272992809257
0 DELTA 1 DEB
1 10221U 77065AY  13292.37032212  .00004260  00000-0  63513-3 0   576
2 10221 029.0664 287.0358 0495016 065.1954 073.7003 14.14281285809400
0 DELTA 1 DEB
1 10221U 77065AY  13294.19745022  .00004652  00000-0  69503-3 0   589
2 10221 029.0666 276.6650 0494970 081.9023 016.4334 14.14294809809667
0 DELTA 1 DEB
1 10221U 77065AY  13295.26078281  .00004901  00000-0  73305-3 0   597
2 10221 029.0667 270.6299 0494929 091.6230 030.3815 14.14302665809819
